{
    "week": 295,
    "satellites": [
        {
            "Name": "COSMOS 2545 (760)",
            "Line1": "1 45358U 20018A   24335.17411743 -.00000041  00000+0  00000+0 0  9995",
            "Line2": "2 45358  64.6719 332.1737 0012127 250.1518 109.7410  2.13102591 36646",
            "SatelliteNumber": "45358",
            "Classification": "U",
            "LaunchYear": "20",
            "LaunchNumber": "018",
            "PieceOfLaunch": "A",
            "EpochYear": "24",
            "EpochDay": 335.17411743,
            "FirstDerivativeMeanMotion": -4.1e-07,
            "SecondDerivativeMeanMotion": "00000+0",
            "BSTAR": "00000+0",
            "SetNumber": "999",
            "Inclination": 64.6719,
            "RAAN": 332.1737,
            "Eccentricity": 0.0012127,
            "ArgumentOfPerigee": 250.1518,
            "MeanAnomaly": 109.741,
            "MeanMotion": 2.13102591,
            "RevolutionNumber": "3664"
        },
        {
            "Name": "COSMOS 2547 (705K)",
            "Line1": "1 46805U 20075A   24333.48361860  .00000066  00000+0  00000+0 0  9998",
            "Line2": "2 46805  64.5957 211.3718 0006224 234.7021 125.3299  2.13102889 31859",
            "SatelliteNumber": "46805",
            "Classification": "U",
            "LaunchYear": "20",
            "LaunchNumber": "075",
            "PieceOfLaunch": "A",
            "EpochYear": "24",
            "EpochDay": 333.4836186,
            "FirstDerivativeMeanMotion": 6.6e-07,
            "SecondDerivativeMeanMotion": "00000+0",
            "BSTAR": "00000+0",
            "SetNumber": "999",
            "Inclination": 64.5957,
            "RAAN": 211.3718,
            "Eccentricity": 0.0006224,
            "ArgumentOfPerigee": 234.7021,
            "MeanAnomaly": 125.3299,
            "MeanMotion": 2.13102889,
            "RevolutionNumber": "3185"
        },
        {
            "Name": "COSMOS 2557 (706K)",
            "Line1": "1 52984U 22075A   24335.05736946 -.00000041  00000+0  00000+0 0  9995",
            "Line2": "2 52984  64.6030 334.2924 0014119 277.5868  82.2799  2.13102060 18691",
            "SatelliteNumber": "52984",
            "Classification": "U",
            "LaunchYear": "22",
            "LaunchNumber": "075",
            "PieceOfLaunch": "A",
            "EpochYear": "24",
            "EpochDay": 335.05736946,
            "FirstDerivativeMeanMotion": -4.1e-07,
            "SecondDerivativeMeanMotion": "00000+0",
            "BSTAR": "00000+0",
            "SetNumber": "999",
            "Inclination": 64.603,
            "RAAN": 334.2924,
            "Eccentricity": 0.0014119,
            "ArgumentOfPerigee": 277.5868,
            "MeanAnomaly": 82.2799,
            "MeanMotion": 2.1310206,
            "RevolutionNumber": "1869"
        },
        {
            "Name": "COSMOS 2559 (707K)",
            "Line1": "1 54031U 22130A   24335.00079822 -.00000042  00000+0  00000+0 0  9991",
            "Line2": "2 54031  64.5750 334.4063 0008182 233.6520 126.3001  2.13101421 16662",
            "SatelliteNumber": "54031",
            "Classification": "U",
            "LaunchYear": "22",
            "LaunchNumber": "130",
            "PieceOfLaunch": "A",
            "EpochYear": "24",
            "EpochDay": 335.00079822,
            "FirstDerivativeMeanMotion": -4.2e-07,
            "SecondDerivativeMeanMotion": "00000+0",
            "BSTAR": "00000+0",
            "SetNumber": "999",
            "Inclination": 64.575,
            "RAAN": 334.4063,
            "Eccentricity": 0.0008182,
            "ArgumentOfPerigee": 233.652,
            "MeanAnomaly": 126.3001,
            "MeanMotion": 2.13101421,
            "RevolutionNumber": "1666"
        },
        {
            "Name": "COSMOS 2564 (761)",
            "Line1": "1 54377U 22161A   24335.66026856  .00000081  00000+0  00000+0 0  9991",
            "Line2": "2 54377  64.7371 211.4336 0008282 210.1172 149.9341  2.13102178 15620",
            "SatelliteNumber": "54377",
            "Classification": "U",
            "LaunchYear": "22",
            "LaunchNumber": "161",
            "PieceOfLaunch": "A",
            "EpochYear": "24",
            "EpochDay": 335.66026856,
            "FirstDerivativeMeanMotion": 8.1e-07,
            "SecondDerivativeMeanMotion": "00000+0",
            "BSTAR": "00000+0",
            "SetNumber": "999",
            "Inclination": 64.7371,
            "RAAN": 211.4336,
            "Eccentricity": 0.0008282,
            "ArgumentOfPerigee": 210.1172,
            "MeanAnomaly": 149.9341,
            "MeanMotion": 2.13102178,
            "RevolutionNumber": "1562"
        },
        {
            "Name": "COSMOS 2569 (703K)",
            "Line1": "1 57517U 23114A   24334.73765894 -.00000007  00000+0  00000+0 0  9997",
            "Line2": "2 57517  64.9953  91.7035 0009604 289.3260  70.5515  2.13104123 10233",
            "SatelliteNumber": "57517",
            "Classification": "U",
            "LaunchYear": "23",
            "LaunchNumber": "114",
            "PieceOfLaunch": "A",
            "EpochYear": "24",
            "EpochDay": 334.73765894,
            "FirstDerivativeMeanMotion": -7e-08,
            "SecondDerivativeMeanMotion": "00000+0",
            "BSTAR": "00000+0",
            "SetNumber": "999",
            "Inclination": 64.9953,
            "RAAN": 91.7035,
            "Eccentricity": 0.0009604,
            "ArgumentOfPerigee": 289.326,
            "MeanAnomaly": 70.5515,
            "MeanMotion": 2.13104123,
            "RevolutionNumber": "1023"
        }
    ]
}